STARLINK-31734          
1 59534U 24074A   26068.12327256  .00000926  00000+0  43148-4 0  9993
2 59534  42.9996 335.8332 0000740 303.0667  57.0114 15.27590006106055
NUSAT-45 (UZMASAT-1)    
1 62640U 25009AH  26068.15592621  .00012539  00000+0  48087-3 0  9996
2 62640  97.3985 150.3373 0001172   1.4631 358.6611 15.26632732 63634
